[{"OBJECT_NAME":"JILIN-1 GAOFEN 3D30","OBJECT_ID":"2022-048E","EPOCH":"2026-03-09T21:57:40.075488","MEAN_MOTION":15.65645396,"ECCENTRICITY":0.00037661,"INCLINATION":97.5601,"RA_OF_ASC_NODE":177.6006,"ARG_OF_PERICENTER":36.1292,"MEAN_ANOMALY":324.0221,"EPHEMERIS_TYPE":0,"CLASSIFICATION_TYPE":"U","NORAD_CAT_ID":52447,"ELEMENT_SET_NO":999,"REV_AT_EPOCH":21410,"BSTAR":0.0010483888,"MEAN_MOTION_DOT":0.00106545,"MEAN_MOTION_DDOT":0},{"OBJECT_NAME":"PEGASUS R\/B","OBJECT_ID":"2016-078J","EPOCH":"2026-03-09T11:17:36.981888","MEAN_MOTION":15.6531625,"ECCENTRICITY":0.00040638,"INCLINATION":34.9316,"RA_OF_ASC_NODE":130.3822,"ARG_OF_PERICENTER":356.4457,"MEAN_ANOMALY":3.624,"EPHEMERIS_TYPE":0,"CLASSIFICATION_TYPE":"U","NORAD_CAT_ID":41892,"ELEMENT_SET_NO":999,"REV_AT_EPOCH":51401,"BSTAR":0.00053938647,"MEAN_MOTION_DOT":0.00055892,"MEAN_MOTION_DDOT":0}]
